[{"OBJECT_NAME":"STELLA","OBJECT_ID":"1993-061B","EPOCH":"2026-03-09T22:50:14.153280","MEAN_MOTION":14.2746756,"ECCENTRICITY":0.00067535,"INCLINATION":98.784,"RA_OF_ASC_NODE":132.7988,"ARG_OF_PERICENTER":156.9855,"MEAN_ANOMALY":327.7404,"EPHEMERIS_TYPE":0,"CLASSIFICATION_TYPE":"U","NORAD_CAT_ID":22824,"ELEMENT_SET_NO":999,"REV_AT_EPOCH":69061,"BSTAR":7.617075e-6,"MEAN_MOTION_DOT":-2.6e-7,"MEAN_MOTION_DDOT":0},{"OBJECT_NAME":"CZ-4B DEB","OBJECT_ID":"1999-057SJ","EPOCH":"2026-03-09T02:12:01.746432","MEAN_MOTION":14.43740069,"ECCENTRICITY":0.0079812,"INCLINATION":98.6584,"RA_OF_ASC_NODE":117.3715,"ARG_OF_PERICENTER":318.4413,"MEAN_ANOMALY":41.0727,"EPHEMERIS_TYPE":0,"CLASSIFICATION_TYPE":"U","NORAD_CAT_ID":35330,"ELEMENT_SET_NO":999,"REV_AT_EPOCH":20619,"BSTAR":0.00024396876,"MEAN_MOTION_DOT":8.13e-6,"MEAN_MOTION_DDOT":0}]
